COSMOS 2547             
1 46805U 20075A   26086.76204793 -.00000031  00000+0  00000+0 0  9990
2 46805  64.5985 195.1905 0007370 232.5213 127.4084  2.13100219 42176
GPS BIII-4              
1 46826U 20078A   26087.99489457 -.00000042  00000+0  00000+0 0  9996
2 46826  53.9956 214.0294 0069596 204.9521 153.5047  2.00565116 39895
GSAT0223 (GALILEO 27)   
1 49809U 21116A   26085.57513177 -.00000095  00000+0  00000+0 0  9991
2 49809  57.1864 343.9082 0001802 284.7150 254.2688  1.70475251 26779
GSAT0224 (GALILEO 28)   
1 49810U 21116B   26083.04634432 -.00000085  00000+0  00000+0 0  9990
2 49810  57.1880 343.9758 0001287 309.9434 229.6785  1.70475197 26752
GOES 18                 
1 51850U 22021A   26088.00322461  .00000077  00000+0  00000+0 0  9990
2 51850   0.0499  29.1378 0000456  26.3797 355.0404  1.00272466  5781
COSMOS 2557 (706K)      
1 52984U 22075A   26087.86551846 -.00000031  00000+0  00000+0 0  9993
2 52984  64.3444 317.3169 0010906 283.6140  76.3199  2.13101767 29009
METEOSAT-12 (MTG-I1)    
1 54743U 22170C   26088.18644705 -.00000026  00000+0  00000+0 0  9991
2 54743   0.7321  25.5075 0001843 290.4834 297.3646  1.00272867 12179
METEOR-M2 3             
1 57166U 23091A   26088.21008341  .00000012  00000+0  24072-4 0  9994
2 57166  98.6172 144.7933 0004762  54.6253 305.5370 14.24039656143130
COSMOS 2569 (703K)      
1 57517U 23114A   26087.54112750  .00000041  00000+0  00000+0 0  9997
2 57517  65.2574  75.3385 0012907 293.4527  66.4203  2.13103807 20545
METEOR-M2 4             
1 59051U 24039A   26088.20435338  .00000040  00000+0  37532-4 0  9997
2 59051  98.6939  48.5415 0007923  47.2965 312.8879 14.22420252107894
GSAT0225 (GALILEO 29)   
1 59598U 24079A   26087.07569868  .00000039  00000+0  00000+0 0  9990
2 59598  55.0678 103.3445 0002740 270.8462 214.7370  1.70474547 11938
GSAT0227 (GALILEO 30)   
1 59600U 24079C   26084.70822061  .00000032  00000+0  00000+0 0  9991
2 59600  55.0598 103.4096 0000616  12.6919 347.3562  1.70474585 11944
GSAT0226 (GALILEO 31)   
1 61183U 24167B   26086.54056287 -.00000012  00000+0  00000+0 0  9990
2 61183  55.2106 223.5582 0001564 156.5708 194.8874  1.70474116  9455
GSAT0234 (GALILEO 34)   
1 67162U 25302C   26086.69588354  .00000036  00000+0  00000+0 0  9991
2 67162  54.2830 104.4494 0003830 286.8102  76.5044  1.70474528  1794
